{
    "links": {
        "self": "http://www.neowsapp.com/rest/v1/neo/3797455?api_key=iIulBulltgU6a56xZRHN4H3l9WmuAYTsLGpBGhQ2"
    },
    "id": "3797455",
    "neo_reference_id": "3797455",
    "name": "(2018 AM2)",
    "designation": "2018 AM2",
    "nasa_jpl_url": "http://ssd.jpl.nasa.gov/sbdb.cgi?sstr=3797455",
    "absolute_magnitude_h": 25.8,
    "estimated_diameter": {
        "kilometers": {
            "estimated_diameter_min": 0.0183888672,
            "estimated_diameter_max": 0.0411187571
        },
        "meters": {
            "estimated_diameter_min": 18.388867207,
            "estimated_diameter_max": 41.1187571041
        },
        "miles": {
            "estimated_diameter_min": 0.0114263088,
            "estimated_diameter_max": 0.0255500032
        },
        "feet": {
            "estimated_diameter_min": 60.3309310875,
            "estimated_diameter_max": 134.9040630575
        }
    },
    "is_potentially_hazardous_asteroid": false,
    "close_approach_data": [
        {
            "close_approach_date": "2018-01-16",
            "close_approach_date_full": "2018-Jan-16 15:32",
            "epoch_date_close_approach": 1516116720000,
            "relative_velocity": {
                "kilometers_per_second": "13.5059367729",
                "kilometers_per_hour": "48621.3723825671",
                "miles_per_hour": "30211.429967379"
            },
            "miss_distance": {
                "astronomical": "0.0311457528",
                "lunar": "12.1156978392",
                "kilometers": "4659338.278426536",
                "miles": "2895178.5550007568"
            },
            "orbiting_body": "Earth"
        }
    ],
    "orbital_data": {
        "orbit_id": "3",
        "orbit_determination_date": "2019-07-17 06:12:38",
        "first_observation_date": "2018-01-11",
        "last_observation_date": "2018-01-14",
        "data_arc_in_days": 3,
        "observations_used": 22,
        "orbit_uncertainty": "8",
        "minimum_orbit_intersection": ".0194934",
        "jupiter_tisserand_invariant": "3.191",
        "epoch_osculation": "2458130.5",
        "eccentricity": ".618812841564605",
        "semi_major_axis": "2.430489221194186",
        "inclination": "12.06461270840768",
        "ascending_node_longitude": "294.9267096971829",
        "orbital_period": "1384.009196555898",
        "perihelion_distance": ".9264712798348678",
        "perihelion_argument": "219.4536945047815",
        "aphelion_distance": "3.934507162553504",
        "perihelion_time": "2458162.769887414750",
        "mean_anomaly": "351.6061544256937",
        "mean_motion": ".2601138785030177",
        "equinox": "J2000",
        "orbit_class": {
            "orbit_class_type": "APO",
            "orbit_class_description": "Near-Earth asteroid orbits which cross the Earth’s orbit similar to that of 1862 Apollo",
            "orbit_class_range": "a (semi-major axis) > 1.0 AU; q (perihelion) < 1.017 AU"
        }
    },
    "is_sentry_object": false
}